[{"OBJECT_NAME":"STARLINK-1525","OBJECT_ID":"2020-055AR","EPOCH":"2026-03-10T00:00:02.999808","MEAN_MOTION":15.13670786,"ECCENTRICITY":0.0001869,"INCLINATION":53.0548,"RA_OF_ASC_NODE":94.9738,"ARG_OF_PERICENTER":80.5858,"MEAN_ANOMALY":205.6768,"EPHEMERIS_TYPE":0,"CLASSIFICATION_TYPE":"U","NORAD_CAT_ID":46066,"ELEMENT_SET_NO":999,"REV_AT_EPOCH":574,"BSTAR":0.0022654864,"MEAN_MOTION_DOT":0.00041164,"MEAN_MOTION_DDOT":0},{"OBJECT_NAME":"TABLETSAT-AURORA","OBJECT_ID":"2014-033H","EPOCH":"2026-03-09T22:49:06.914208","MEAN_MOTION":15.16184908,"ECCENTRICITY":0.00118478,"INCLINATION":98.0327,"RA_OF_ASC_NODE":137.2566,"ARG_OF_PERICENTER":188.6042,"MEAN_ANOMALY":171.4988,"EPHEMERIS_TYPE":0,"CLASSIFICATION_TYPE":"U","NORAD_CAT_ID":40017,"ELEMENT_SET_NO":999,"REV_AT_EPOCH":64016,"BSTAR":6.1648456e-5,"MEAN_MOTION_DOT":1.116e-5,"MEAN_MOTION_DDOT":0}]
